{
  "type": "FeatureCollection",
  "features": [
    {
      "type": "Feature",
      "properties": {
        "norad_id": 56564,
        "name": "BEIDOU-3 G4 (C62)",
        "group": "gnss",
        "lat": 0.05991126474556804,
        "lon": -54.51008858577844,
        "alt_km": 35795.31020090709,
        "timestamp": "2025-12-03T04:52:29.881370+00:00",
        "meta_object_name": "BEIDOU-3 G4 (C62)",
        "meta_object_id": "2023-066A",
        "meta_epoch": "2025-12-02T19:08:10.347936",
        "meta_mean_motion": 1.00270999,
        "meta_eccentricity": 0.0003368,
        "meta_inclination": 0.8384,
        "meta_ra_of_asc_node": 301.1878,
        "meta_arg_of_pericenter": 234.5101,
        "meta_mean_anomaly": 343.3115,
        "meta_ephemeris_type": 0,
        "meta_classification_type": "U",
        "meta_norad_cat_id": 56564,
        "meta_element_set_no": 999,
        "meta_rev_at_epoch": 942,
        "meta_bstar": 0,
        "meta_mean_motion_dot": -9.1e-07,
        "meta_mean_motion_ddot": 0,
        "tle_line1": "1 56564U 23066A   25336.79734199 -.00000091  00000+0  00000+0 0  9990",
        "tle_line2": "2 56564   0.8384 301.1878 0003368 234.5101 343.3115  1.00270999  9427"
      },
      "geometry": {
        "type": "Point",
        "coordinates": [
          -54.51008858577844,
          0.05991126474556804
        ]
      }
    },
    {
      "type": "Feature",
      "properties": {
        "norad_id": 56759,
        "name": "NVS-01 (IRNSS-1J)",
        "group": "gnss",
        "lat": 1.0185422441736935,
        "lon": -85.05938994906482,
        "alt_km": 35752.4359533366,
        "timestamp": "2025-12-03T04:52:29.881382+00:00",
        "meta_object_name": "NVS-01 (IRNSS-1J)",
        "meta_object_id": "2023-076A",
        "meta_epoch": "2025-12-02T15:59:24.153792",
        "meta_mean_motion": 1.00267651,
        "meta_eccentricity": 0.0008587,
        "meta_inclination": 2.6451,
        "meta_ra_of_asc_node": 251.9698,
        "meta_arg_of_pericenter": 5.8658,
        "meta_mean_anomaly": 183.3364,
        "meta_ephemeris_type": 0,
        "meta_classification_type": "U",
        "meta_norad_cat_id": 56759,
        "meta_element_set_no": 999,
        "meta_rev_at_epoch": 914,
        "meta_bstar": 0,
        "meta_mean_motion_dot": -3.13e-06,
        "meta_mean_motion_ddot": 0,
        "tle_line1": "1 56759U 23076A   25336.66625178 -.00000313  00000+0  00000+0 0  9996",
        "tle_line2": "2 56759   2.6451 251.9698 0008587   5.8658 183.3364  1.00267651  9142"
      },
      "geometry": {
        "type": "Point",
        "coordinates": [
          -85.05938994906482,
          1.0185422441736935
        ]
      }
    },
    {
      "type": "Feature",
      "properties": {
        "norad_id": 57517,
        "name": "COSMOS 2569 (703K)",
        "group": "gnss",
        "lat": 61.75511436368833,
        "lon": 138.52969256788654,
        "alt_km": 19145.043945005673,
        "timestamp": "2025-12-03T04:52:29.881393+00:00",
        "meta_object_name": "COSMOS 2569 (703K)",
        "meta_object_id": "2023-114A",
        "meta_epoch": "2025-12-01T05:26:50.828352",
        "meta_mean_motion": 2.13103848,
        "meta_eccentricity": 0.0010073,
        "meta_inclination": 65.188,
        "meta_ra_of_asc_node": 79.3026,
        "meta_arg_of_pericenter": 287.0136,
        "meta_mean_anomaly": 72.876,
        "meta_ephemeris_type": 0,
        "meta_classification_type": "U",
        "meta_norad_cat_id": 57517,
        "meta_element_set_no": 999,
        "meta_rev_at_epoch": 1804,
        "meta_bstar": 0,
        "meta_mean_motion_dot": -1.2e-07,
        "meta_mean_motion_ddot": 0,
        "tle_line1": "1 57517U 23114A   25335.22697718 -.00000012  00000+0  00000+0 0  9998",
        "tle_line2": "2 57517  65.1880  79.3026 0010073 287.0136  72.8760  2.13103848 18043"
      },
      "geometry": {
        "type": "Point",
        "coordinates": [
          138.52969256788654,
          61.75511436368833
        ]
      }
    },
    {
      "type": "Feature",
      "properties": {
        "norad_id": 58654,
        "name": "BEIDOU-3 M28 (C50)",
        "group": "gnss",
        "lat": -51.479749007634375,
        "lon": 9.58274245572901,
        "alt_km": 21528.72680665626,
        "timestamp": "2025-12-03T04:52:29.881405+00:00",
        "meta_object_name": "BEIDOU-3 M28 (C50)",
        "meta_object_id": "2023-207A",
        "meta_epoch": "2025-12-02T18:32:49.254720",
        "meta_mean_motion": 1.86229565,
        "meta_eccentricity": 0.0002007,
        "meta_inclination": 55.5759,
        "meta_ra_of_asc_node": 68.9391,
        "meta_arg_of_pericenter": 265.1815,
        "meta_mean_anomaly": 94.7983,
        "meta_ephemeris_type": 0,
        "meta_classification_type": "U",
        "meta_norad_cat_id": 58654,
        "meta_element_set_no": 999,
        "meta_rev_at_epoch": 1318,
        "meta_bstar": 0,
        "meta_mean_motion_dot": -4.9e-07,
        "meta_mean_motion_ddot": 0,
        "tle_line1": "1 58654U 23207A   25336.77279230 -.00000049  00000+0  00000+0 0  9990",
        "tle_line2": "2 58654  55.5759  68.9391 0002007 265.1815  94.7983  1.86229565 13186"
      },
      "geometry": {
        "type": "Point",
        "coordinates": [
          9.58274245572901,
          -51.479749007634375
        ]
      }
    },
    {
      "type": "Feature",
      "properties": {
        "norad_id": 58655,
        "name": "BEIDOU-3 M26 (C48)",
        "group": "gnss",
        "lat": 47.92936347013662,
        "lon": 118.24769789199956,
        "alt_km": 21531.707562989384,
        "timestamp": "2025-12-03T04:52:29.881415+00:00",
        "meta_object_name": "BEIDOU-3 M26 (C48)",
        "meta_object_id": "2023-207B",
        "meta_epoch": "2025-11-29T21:15:29.587968",
        "meta_mean_motion": 1.86231123,
        "meta_eccentricity": 0.00033719,
        "meta_inclination": 55.5753,
        "meta_ra_of_asc_node": 69.0231,
        "meta_arg_of_pericenter": 249.3814,
        "meta_mean_anomaly": 110.59,
        "meta_ephemeris_type": 0,
        "meta_classification_type": "U",
        "meta_norad_cat_id": 58655,
        "meta_element_set_no": 999,
        "meta_rev_at_epoch": 1311,
        "meta_bstar": 0,
        "meta_mean_motion_dot": -3.1e-07,
        "meta_mean_motion_ddot": 0,
        "tle_line1": "1 58655U 23207B   25333.88575912 -.00000031  00000+0  00000+0 0  9997",
        "tle_line2": "2 58655  55.5753  69.0231 0003371 249.3814 110.5900  1.86231123 13116"
      },
      "geometry": {
        "type": "Point",
        "coordinates": [
          118.24769789199956,
          47.92936347013662
        ]
      }
    },
    {
      "type": "Feature",
      "properties": {
        "norad_id": 59598,
        "name": "GSAT0225 (GALILEO 29)",
        "group": "gnss",
        "lat": -4.359387376282775,
        "lon": -70.39836444161399,
        "alt_km": 23216.742641165325,
        "timestamp": "2025-12-03T04:52:29.881429+00:00",
        "meta_object_name": "GSAT0225 (GALILEO 29)",
        "meta_object_id": "2024-079A",
        "meta_epoch": "2025-12-01T03:29:20.871744",
        "meta_mean_motion": 1.70474544,
        "meta_eccentricity": 0.0002155,
        "meta_inclination": 54.9941,
        "meta_ra_of_asc_node": 106.6197,
        "meta_arg_of_pericenter": 171.5653,
        "meta_mean_anomaly": 190.7741,
        "meta_ephemeris_type": 0,
        "meta_classification_type": "U",
        "meta_norad_cat_id": 59598,
        "meta_element_set_no": 999,
        "meta_rev_at_epoch": 994,
        "meta_bstar": 0,
        "meta_mean_motion_dot": 4.1e-07,
        "meta_mean_motion_ddot": 0,
        "tle_line1": "1 59598U 24079A   25335.14538046  .00000041  00000+0  00000+0 0  9990",
        "tle_line2": "2 59598  54.9941 106.6197 0002155 171.5653 190.7741  1.70474544  9948"
      },
      "geometry": {
        "type": "Point",
        "coordinates": [
          -70.39836444161399,
          -4.359387376282775
        ]
      }
    },
    {
      "type": "Feature",
      "properties": {
        "norad_id": 59600,
        "name": "GSAT0227 (GALILEO 30)",
        "group": "gnss",
        "lat": 51.45010928428196,
        "lon": 168.0789177827993,
        "alt_km": 23208.220089896386,
        "timestamp": "2025-12-03T04:52:29.881440+00:00",
        "meta_object_name": "GSAT0227 (GALILEO 30)",
        "meta_object_id": "2024-079C",
        "meta_epoch": "2025-11-30T03:38:35.461248",
        "meta_mean_motion": 1.70474636,
        "meta_eccentricity": 0.00034867,
        "meta_inclination": 54.9888,
        "meta_ra_of_asc_node": 106.6465,
        "meta_arg_of_pericenter": 113.1426,
        "meta_mean_anomaly": 246.8704,
        "meta_ephemeris_type": 0,
        "meta_classification_type": "U",
        "meta_norad_cat_id": 59600,
        "meta_element_set_no": 999,
        "meta_rev_at_epoch": 997,
        "meta_bstar": 0,
        "meta_mean_motion_dot": 4.8e-07,
        "meta_mean_motion_ddot": 0,
        "tle_line1": "1 59600U 24079C   25334.15179932  .00000048  00000+0  00000+0 0  9996",
        "tle_line2": "2 59600  54.9888 106.6465 0003486 113.1426 246.8704  1.70474636  9975"
      },
      "geometry": {
        "type": "Point",
        "coordinates": [
          168.0789177827993,
          51.45010928428196
        ]
      }
    }
  ]
}